ONEWEB-0220             
1 48232U 21031Y   23326.85824887  .00000140  00000+0  34235-3 0  9996
2 48232  87.8950 116.2971 0001896 103.7787 256.3554 13.14504421125263
ONEWEB-0165             
1 48233U 21031Z   23326.88678472  .00000121  00000+0  29297-3 0  9998
2 48233  87.8948 116.3007 0001607 103.3152 256.8157 13.14505768125229
ONEWEB-0199             
1 48234U 21031AA  23327.47989359  .00000577  00000+0  15216-2 0  9994
2 48234  87.8946 116.1538 0001681  97.7729 262.3591 13.14502784125200
ONEWEB-0203             
1 48235U 21031AB  23326.86142051  .00000153  00000+0  37946-3 0  9992
2 48235  87.8946 116.2776 0001190  95.9699 264.1567 13.14513325125135
ONEWEB-0197             
1 48236U 21031AC  23327.00001157 -.00034210  00000+0 -90592-1 0  9998
2 48236  87.8941 116.2552 0001701  89.6765 297.0012 13.16038899  5222
ONEWEB-0194             
1 48237U 21031AD  23326.96765583 -.00001230  00000+0 -33512-2 0  9999
2 48237  87.8955 116.2543 0000867 116.3790 243.7429 13.14517485125231
ONEWEB-0193             
1 48238U 21031AE  23326.83128254 -.00000193  00000+0 -55505-3 0  9998
2 48238  87.8946 116.2891 0001441 103.0129 257.1161 13.14504546125164
ONEWEB-0191             
1 48239U 21031AF  23327.45133371 -.00000154  00000+0 -45019-3 0  9990
2 48239  87.8957 116.1518 0001377  99.1423 260.9862 13.14504023125106
